[{"OBJECT_NAME":"TECMS","OBJECT_ID":"2022-090A","EPOCH":"2026-03-09T23:23:02.255424","MEAN_MOTION":15.21523319,"ECCENTRICITY":0.00036997,"INCLINATION":97.323,"RA_OF_ASC_NODE":139.8482,"ARG_OF_PERICENTER":189.8561,"MEAN_ANOMALY":170.2604,"EPHEMERIS_TYPE":0,"CLASSIFICATION_TYPE":"U","NORAD_CAT_ID":53346,"ELEMENT_SET_NO":999,"REV_AT_EPOCH":19972,"BSTAR":0.00023961949,"MEAN_MOTION_DOT":5.328e-5,"MEAN_MOTION_DDOT":0},{"OBJECT_NAME":"STARLINK-30162","OBJECT_ID":"2023-105S","EPOCH":"2026-03-09T22:00:01.999584","MEAN_MOTION":15.15680844,"ECCENTRICITY":0.00014722,"INCLINATION":43.0007,"RA_OF_ASC_NODE":246.8903,"ARG_OF_PERICENTER":274.6501,"MEAN_ANOMALY":98.8321,"EPHEMERIS_TYPE":0,"CLASSIFICATION_TYPE":"U","NORAD_CAT_ID":57446,"ELEMENT_SET_NO":999,"REV_AT_EPOCH":578,"BSTAR":0.034975087,"MEAN_MOTION_DOT":0.00729589,"MEAN_MOTION_DDOT":0}]
